CHINASAT 9B             
1 49125U 21080A   26194.79498546 -.00000317  00000+0  00000+0 0  9996
2 49125   0.0298  87.3688 0002119  59.5071 172.3905  1.00269190 17915
SHIJIAN-21 (SJ-21)      
1 49330U 21094A   26194.77642597 -.00000356  00000+0  00000+0 0  9997
2 49330   5.1737  61.0156 0051692 168.9604 109.0472  1.00278551  5625
SES-17                  
1 49332U 21095A   26195.12101436 -.00000278  00000+0  00000+0 0  9995
2 49332   0.0227  46.2886 0000762  72.0195 150.1390  1.00269024 18122
SYRACUSE 4A             
1 49333U 21095B   26194.42736332  .00000000  00000+0  00000+0 0  9999
2 49333   0.0270  55.9116 0001478  51.2438  23.5099  1.00269771 18216
QZS-1R (MICHIBIKI-1R)   
1 49336U 21096A   26193.57683811 -.00000300  00000+0  00000+0 0  9995
2 49336  37.5114  79.2075 0755009 272.2000 278.6576  1.00245962 17263
ZHONGXING-1D            
1 49505U 21114A   26195.22840284 -.00000343  00000+0  00000+0 0  9994
2 49505   0.0553 227.8281 0000608  32.2727 244.3945  1.00268822 17092
STPSAT-6                
1 49817U 21118A   26195.12060462 -.00000051  00000+0  00000+0 0  9991
2 49817   0.3881  85.1020 0000986 238.4456 260.0757  1.00269946 16845
EXPRESS AMU-7           
1 50001U 21123A   26195.16004847 -.00000249  00000+0  00000+0 0  9992
2 50001   0.0270 290.1936 0000263 324.8788 239.5566  1.00270111 16813
EXPRESS AMU-3           
1 50002U 21123B   26194.90370606  .00000000  00000+0  00000+0 0  9997
2 50002   0.0153   7.8357 0000168 332.7754  19.3883  1.00270109  7294
TIANLIAN 2-02           
1 50005U 21124A   26195.16516183 -.00000022  00000+0  00000+0 0  9997
2 50005   0.8681  85.6821 0001619 162.1505 274.6172  1.00270488 16895
TURKSAT 5B              
1 50212U 21126A   26194.49803883  .00000142  00000+0  00000+0 0  9992
2 50212   0.0700 338.4739 0002495  12.5122 161.6814  1.00271883 16564
INMARSAT 6-F1           
1 50319U 21128A   26195.14791507 -.00000178  00000+0  00000+0 0  9994
2 50319   0.0152 315.7214 0000139 302.9523 170.3413  1.00271519 16527
SHIYAN-12 01 (SY-12 01) 
1 50321U 21129A   26194.71117001  .00000143  00000+0  00000+0 0  9992
2 50321   3.7406  79.5526 0002604 284.7957 221.7076  1.00050328 16765
SHIYAN-12 02 (SY-12 02) 
1 50322U 21129B   26194.75055331 -.00000367  00000+0  00000+0 0  9993
2 50322   3.7398  79.5521 0003036  70.3677 161.1938  1.00477926 16760
TJS-9                   
1 50574U 21135A   26195.22978950 -.00000305  00000+0  00000+0 0  9995
2 50574   0.0446 104.0094 0002205 324.9548  83.0940  1.00272759 16700
GOES 18                 
1 51850U 22021A   26195.21236742  .00000090  00000+0  00000+0 0  9993
2 51850   0.0184 128.1604 0000394  61.7884  41.5771  1.00270525  6863
ZHONGXING-6D            
1 52255U 22038A   26194.84223116 -.00000359  00000+0  00000+0 0  9999
2 52255   0.0275 237.4428 0000598 295.0425 187.5007  1.00272740 15685
NILESAT 301             
1 52817U 22061A   26195.12997499 -.00000064  00000+0  00000+0 0  9996
2 52817   0.0463 354.3678 0003504  84.8972 252.5473  1.00269301 15000
CMS-02 (GSAT-24)        
1 52903U 22067A   26194.36356392 -.00000168  00000+0  00000+0 0  9999
2 52903   0.0188  97.4916 0000646 246.9311 160.6994  1.00271614 14873
MEASAT 3D               
1 52904U 22067B   26195.14947508 -.00000248  00000+0  00000+0 0  9991
2 52904   0.0468 308.6858 0000602  64.6810  63.9661  1.00271543 14921
SES-22                  
1 52933U 22071A   26195.18385133  .00000098  00000+0  00000+0 0  9994
2 52933   0.0173  13.1174 0000781  92.7171 113.3753  1.00271029  7793
WFOV (USA 332)          
1 52940U 22073A   26195.01234284 -.00000371  00000+0  00000+0 0  9991
2 52940   3.7773  78.1880 0001533 214.7178 122.6983  1.00267765 14632
TIANLIAN 2-03           
1 53100U 22078A   26195.13344168  .00000065  00000+0  00000+0 0  9990
2 53100   0.7376  77.4695 0000926   4.6577 268.5483  1.00273706 14814
SBIRS GEO-6 (USA 336)   
1 53355U 22092A   26194.87366413 -.00000293  00000+0  00000+0 0  9999
2 53355   3.2138 317.9261 0001615 154.6547 272.6838  1.00270547 14506
EUTELSAT KONNECT VHTS   
1 53765U 22110A   26194.98928940  .00000010  00000+0  00000+0 0  9992
2 53765   0.0579  98.5802 0002656   1.4940 190.6143  1.00267750  7108
ZHONGXING-1E            
1 53813U 22112A   26195.14739508 -.00000156  00000+0  00000+0 0  9999
2 53813   0.0682 229.6087 0000947  49.6345 147.2233  1.00272550 14114
SES-20                  
1 53960U 22123A   26195.12419166 -.00000107  00000+0  00000+0 0  9993
2 53960   0.0158  63.6429 0001744  28.3369 141.6186  1.00269183 13805
SES-21                  
1 53961U 22123B   26195.03409625  .00000000  00000+0  00000+0 0  9994
2 53961   0.0398  36.9714 0001181  72.5492  63.7350  1.00270261  7488
GALAXY 33 (G-33)        
1 54026U 22128A   26195.21380912  .00000072  00000+0  00000+0 0  9998
2 54026   0.0142  28.6222 0001769  91.7867 115.6389  1.00271849 14010
GALAXY 34 (G-34)        
1 54027U 22128B   26195.03444293  .00000000  00000+0  00000+0 0  9993
2 54027   0.0261  33.5246 0001375 104.8252  36.9621  1.00271694 14181
ANGOSAT 2               
1 54033U 22131A   26195.20716940  .00000129  00000+0  00000+0 0  9996
2 54033   0.0191 114.8738 0000162 144.7955 129.9770  1.00271401 13740
EUTELSAT HOTBIRD 13F    
1 54048U 22134A   26195.06258682  .00000081  00000+0  00000+0 0  9990
2 54048   0.0577 284.3960 0001838  71.1640 331.9173  1.00271968 13648
