OBJECT_NAME,OBJECT_ID,EPOCH,MEAN_MOTION,ECCENTRICITY,INCLINATION,RA_OF_ASC_NODE,ARG_OF_PERICENTER,MEAN_ANOMALY,EPHEMERIS_TYPE,CLASSIFICATION_TYPE,NORAD_CAT_ID,ELEMENT_SET_NO,REV_AT_EPOCH,BSTAR,MEAN_MOTION_DOT,MEAN_MOTION_DDOT
CHINASAT 9B,2021-080A,2026-07-13T19:04:46.743744,1.00269190,.0002119,0.0298,87.3688,59.5071,172.3905,0,U,49125,999,1791,0,-.317E-5,0
SHIJIAN-21 (SJ-21),2021-094A,2026-07-13T18:38:03.203808,1.00278551,.0051692,5.1737,61.0156,168.9604,109.0472,0,U,49330,999,562,0,-.356E-5,0
SES-17,2021-095A,2026-07-14T02:54:15.640704,1.00269024,.0000762,0.0227,46.2886,72.0195,150.1390,0,U,49332,999,1812,0,-.278E-5,0
SYRACUSE 4A,2021-095B,2026-07-13T10:15:24.190848,1.00269771,.00014786,0.0270,55.9116,51.2438,23.5099,0,U,49333,999,1821,0,0,0
QZS-1R (MICHIBIKI-1R),2021-096A,2026-07-12T13:50:38.812704,1.00245962,.07550099,37.5114,79.2075,272.2000,278.6576,0,U,49336,999,1726,0,-.3E-5,0
ZHONGXING-1D,2021-114A,2026-07-14T05:28:54.005376,1.00268822,.0000608,0.0553,227.8281,32.2727,244.3945,0,U,49505,999,1709,0,-.343E-5,0
STPSAT-6,2021-118A,2026-07-14T02:53:40.239168,1.00269946,.0000986,0.3881,85.1020,238.4456,260.0757,0,U,49817,999,1684,0,-.51E-6,0
EXPRESS AMU-7,2021-123A,2026-07-14T03:50:28.187808,1.00270111,.0000263,0.0270,290.1936,324.8788,239.5566,0,U,50001,999,1681,0,-.249E-5,0
EXPRESS AMU-3,2021-123B,2026-07-13T21:41:20.203584,1.00270109,.0000168,0.0153,7.8357,332.7754,19.3883,0,U,50002,999,729,0,0,0
TIANLIAN 2-02,2021-124A,2026-07-14T03:57:49.982112,1.00270488,.0001619,0.8681,85.6821,162.1505,274.6172,0,U,50005,999,1689,0,-.22E-6,0
TURKSAT 5B,2021-126A,2026-07-13T11:57:10.554912,1.00271883,.00024959,0.0700,338.4739,12.5122,161.6814,0,U,50212,999,1656,0,.142E-5,0
INMARSAT 6-F1,2021-128A,2026-07-14T03:32:59.862048,1.00271519,.0000139,0.0152,315.7214,302.9523,170.3413,0,U,50319,999,1652,0,-.178E-5,0
SHIYAN-12 01 (SY-12 01),2021-129A,2026-07-13T17:04:05.088864,1.00050328,.0002604,3.7406,79.5526,284.7957,221.7076,0,U,50321,999,1676,0,.143E-5,0
SHIYAN-12 02 (SY-12 02),2021-129B,2026-07-13T18:00:47.805984,1.00477926,.0003036,3.7398,79.5521,70.3677,161.1938,0,U,50322,999,1676,0,-.367E-5,0
TJS-9,2021-135A,2026-07-14T05:30:53.812800,1.00272759,.0002205,0.0446,104.0094,324.9548,83.0940,0,U,50574,999,1670,0,-.305E-5,0
GOES 18,2022-021A,2026-07-14T05:05:48.545088,1.00270525,.0000394,0.0184,128.1604,61.7884,41.5771,0,U,51850,999,686,0,.9E-6,0
ZHONGXING-6D,2022-038A,2026-07-13T20:12:48.772224,1.00272740,.0000598,0.0275,237.4428,295.0425,187.5007,0,U,52255,999,1568,0,-.359E-5,0
NILESAT 301,2022-061A,2026-07-14T03:07:09.839136,1.00269301,.0003504,0.0463,354.3678,84.8972,252.5473,0,U,52817,999,1500,0,-.64E-6,0
CMS-02 (GSAT-24),2022-067A,2026-07-13T08:43:31.922688,1.00271614,.00006467,0.0188,97.4916,246.9311,160.6994,0,U,52903,999,1487,0,-.168E-5,0
MEASAT 3D,2022-067B,2026-07-14T03:35:14.646912,1.00271543,.0000602,0.0468,308.6858,64.6810,63.9661,0,U,52904,999,1492,0,-.248E-5,0
SES-22,2022-071A,2026-07-14T04:24:44.754912,1.00271029,.0000781,0.0173,13.1174,92.7171,113.3753,0,U,52933,999,779,0,.98E-6,0
WFOV (USA 332),2022-073A,2026-07-14T00:17:46.421376,1.00267765,.0001533,3.7773,78.1880,214.7178,122.6983,0,U,52940,999,1463,0,-.371E-5,0
TIANLIAN 2-03,2022-078A,2026-07-14T03:12:09.361152,1.00273706,.0000926,0.7376,77.4695,4.6577,268.5483,0,U,53100,999,1481,0,.65E-6,0
SBIRS GEO-6 (USA 336),2022-092A,2026-07-13T20:58:04.580832,1.00270547,.0001615,3.2138,317.9261,154.6547,272.6838,0,U,53355,999,1450,0,-.293E-5,0
EUTELSAT KONNECT VHTS,2022-110A,2026-07-13T23:44:34.604160,1.00267750,.0002656,0.0579,98.5802,1.4940,190.6143,0,U,53765,999,710,0,.1E-6,0
ZHONGXING-1E,2022-112A,2026-07-14T03:32:14.934912,1.00272550,.0000947,0.0682,229.6087,49.6345,147.2233,0,U,53813,999,1411,0,-.156E-5,0
SES-20,2022-123A,2026-07-14T02:58:50.159424,1.00269183,.0001744,0.0158,63.6429,28.3369,141.6186,0,U,53960,999,1380,0,-.107E-5,0
SES-21,2022-123B,2026-07-14T00:49:05.916000,1.00270261,.0001181,0.0398,36.9714,72.5492,63.7350,0,U,53961,999,748,0,0,0
GALAXY 33 (G-33),2022-128A,2026-07-14T05:07:53.107968,1.00271849,.0001769,0.0142,28.6222,91.7867,115.6389,0,U,54026,999,1401,0,.72E-6,0
GALAXY 34 (G-34),2022-128B,2026-07-14T00:49:35.869152,1.00271694,.0001375,0.0261,33.5246,104.8252,36.9621,0,U,54027,999,1418,0,0,0
ANGOSAT 2,2022-131A,2026-07-14T04:58:19.436160,1.00271401,.0000162,0.0191,114.8738,144.7955,129.9770,0,U,54033,999,1374,0,.129E-5,0
EUTELSAT HOTBIRD 13F,2022-134A,2026-07-14T01:30:07.501248,1.00271968,.0001838,0.0577,284.3960,71.1640,331.9173,0,U,54048,999,1364,0,.81E-6,0
